HIMAWARI-8              
1 40267U 14060A   24149.86058329 -.00000269  00000+0  00000+0 0  9997
2 40267   0.0406 139.7368 0001215 321.9459 235.6774  1.00270396 35246
